{"name":"\n      Le Mas du Langoustier    ","rue":"","postalcode":"83400","ville":"Hyères"}
{"name":"\n      Entre Vigne et Garrigue    ","rue":"600 route de Saint Bruno","postalcode":"30131","ville":"Pujaut"}
{"name":"\n      Fanny Rey et Jonathan Wahid    ","rue":"12, boulevard Mirabeau","postalcode":"13210","ville":"SAINT REMY DE PROVENCE"}
{"name":"\n      Arpège    ","rue":"84 Rue de Varenne","postalcode":"75007","ville":"Paris"}
{"name":"\n      Auberge de la Diligence    ","rue":"4 r. de la Libération","postalcode":"49440","ville":"Loiré"}
{"name":"\n      L'Olivier    ","rue":"25 Route des Carles","postalcode":"83990","ville":"Saint-Tropez"}
{"name":"\n      Le Relais des Moines    ","rue":"route de Ste-Roseline","postalcode":"83460","ville":"Les Arcs"}
{"name":"\n      La Table de l'Alpaga    ","rue":"66 Allée des Marmousets","postalcode":"74120","ville":"Megève"}
{"name":"\n      La Ribaudière    ","rue":"2 pl. du Port","postalcode":"16200","ville":"Bourg-Charente"}
{"name":"\n      Maximilien    ","rue":"19a rte Ostheim","postalcode":"68340","ville":"Zellenberg"}
{"name":"\n      Le Cloître    ","rue":"Le Cloitre","postalcode":"04300","ville":"Mane"}
{"name":"\n      Assa    ","rue":"189 Quai Ulysse Besnard","postalcode":"41000","ville":"Blois"}
{"name":"\n      La Ville Blanche    ","rue":"La Ville Blanche","postalcode":"22300","ville":"Rospez"}
{"name":"\n      Atmosphères    ","rue":"618 Route des Tournelles","postalcode":"73370","ville":"Le Bourget-du-Lac"}
{"name":"\n      Hostellerie Jérôme    ","rue":"20 r. Comte de Cessole","postalcode":"06320","ville":"La Turbie"}
{"name":"\n      Apicius    ","rue":"20 r. d'Artois","postalcode":"75008","ville":"Paris"}
{"name":"\n      Aigue Marine    ","rue":"5 r. M. -Berthelot","postalcode":"22220","ville":"Tréguier"}
{"name":"\n      Le Jardin des Remparts    ","rue":"10 rue Hôtel-Dieu","postalcode":"21200","ville":"Beaune"}
{"name":"\n      Le Candille    ","rue":"bd C. Rebuffel","postalcode":"06250","ville":"Mougins"}
{"name":"\n      Aux Pesked    ","rue":"59 Rue du Légué","postalcode":"22000","ville":"Saint-Brieuc"}
{"name":"\n      La Closerie    ","rue":"bd des Platanes","postalcode":"84240","ville":"Ansouis"}
{"name":"\n      L'Arôme    ","rue":"3 rue St-Philippe-du-Roule","postalcode":"75008","ville":"Paris 08"}
{"name":"\n      Le Restaurant    ","rue":"13 rue des Beaux-Arts","postalcode":"75006","ville":"Paris 06"}
{"name":"\n      Les Prés d'Eugénie - Michel Guérard    ","rue":"pl. de l'Impératrice","postalcode":"40320","ville":"Eugénie-les-Bains"}
{"name":"\n      Le Mascaret    ","rue":"1 r. de Bas","postalcode":"50560","ville":"Blainville-sur-Mer"}
{"name":"\n      La Maison de Bournissac    ","rue":"montée d'Eyragues","postalcode":"13550","ville":"Les Paluds-des-Noves"}
{"name":"\n      ES    ","rue":"91 r. de Grenelle","postalcode":"75007","ville":"Paris"}
{"name":"\n      Relais de la Poste    ","rue":"21 rue du Gén. -de-Gaulle","postalcode":"67610","ville":"LA-WANTZENAU"}
{"name":"\n      Le Chiquito    ","rue":"3 r. de l'Oise, La Bonneville","postalcode":"95540","ville":"Méry-sur-Oise"}
{"name":"\n      MaSa    ","rue":"112 avenue Victor-Hugo","postalcode":"92100","ville":"Boulogne-Billancourt"}
{"name":"\n      Hélène Darroze    ","rue":"4 rue d'Assas","postalcode":"75006","ville":"Paris 06"}
{"name":"\n      Les Trois Rochers    ","rue":"16 rue du Phare","postalcode":"29120","ville":"Sainte-Marine"}
{"name":"\n      Pur' - Jean-François Rouquette    ","rue":"5 r. de la Paix","postalcode":"75002","ville":"Paris 02"}
{"name":"\n      Les Bacchanales    ","rue":"247 avenue de Provence","postalcode":"06140","ville":"VENCE"}
{"name":"\n      Le 39V    ","rue":"39 Avenue George V","postalcode":"75008","ville":"Paris 08"}
{"name":"\n      Vieux Pont    ","rue":"","postalcode":"12390","ville":"BELCASTEL"}
{"name":"\n      L'Escarbille    ","rue":"8 Rue de Vélizy","postalcode":"92190","ville":"Meudon"}
{"name":"\n      Julien Binz    ","rue":"7 Rue des Cigognes","postalcode":"68770","ville":"Ammerschwihr"}
{"name":"\n      Le Pêché Gourmand    ","rue":"2 rte de Gap","postalcode":"05100","ville":"Briançon"}
{"name":"\n      Octopus    ","rue":"12, rue François Adrien Boieldieu","postalcode":"34500","ville":"Béziers"}
{"name":"\n      Le Chiberta    ","rue":"3 Rue Arsène Houssaye","postalcode":"75008","ville":"Paris 08"}
{"name":"\n      Girardin    ","rue":"19 Rue des Têtes","postalcode":"68000","ville":"Colmar"}
{"name":"\n      Le Gindreau    ","rue":"D5","postalcode":"46150","ville":"Saint-Médard"}
{"name":"\n      Le Belrose    ","rue":"Boulevard des Crêtes","postalcode":"83580","ville":"Gassin"}
{"name":"\n      Le Hittau    ","rue":"1 rue du Nouaou","postalcode":"40230","ville":"SAINT-VINCENT-DE-TYROSSE"}
{"name":"\n      Michel Sarran    ","rue":"21 bd A.-Duportal","postalcode":"31000","ville":"Toulouse"}
{"name":"\n      Lasserre    ","rue":"17 Avenue F. -D. -Roosevelt","postalcode":"75008","ville":"Paris 08"}
{"name":"\n      L'Aparté    ","rue":"21 Rue de l’Europe","postalcode":"31850","ville":"MONTRABE"}
{"name":"\n      Jérôme Nutile - Le Mas de Boudan    ","rue":"351 Chemin du Mas de Boudan","postalcode":"30000","ville":"Nîmes"}
{"name":"\n      Auberge du Paradis    ","rue":"Le Plâtre-Durand","postalcode":"71570","ville":"Saint-Amour-Bellevue"}
{"name":"\n      1912    ","rue":"bd de la Cahotte","postalcode":"14360","ville":"Trouville-sur-Mer"}
{"name":"\n      Les Terraillers    ","rue":"11 Route Chemin-Neuf","postalcode":"06410","ville":"Biot"}
{"name":"\n      Les Clefs d'Argent    ","rue":"333 Avenue des Martyrs de la Résistance","postalcode":"40000","ville":"Mont-de-Marsan"}
{"name":"\n      Le Petit Nice    ","rue":"Anse de Maldormé - Corniche J. F. Kennedy","postalcode":"13007","ville":"Marseille 07"}
{"name":"\n      L'Abeille    ","rue":"10 Avenue d'Iéna","postalcode":"75016","ville":"Paris 16"}
{"name":"\n      Le M    ","rue":"22 r. du Cdt-Drogou","postalcode":"29200","ville":"Brest"}
{"name":"\n      Py-r    ","rue":"19 descente de la Halle-aux-Poissons","postalcode":"31000","ville":"Toulouse"}
{"name":"\n      Racine    ","rue":"8 r. Colbert","postalcode":"51100","ville":"Reims"}
