{"name":"\n      L'Orangerie du Château    ","rue":"1 Avenue du Docteur Jean Laigret","postalcode":"41000","ville":"Blois"}
{"name":"\n      Auberge de l'Île Barbe    ","rue":"1 Place Notre-Dame","postalcode":"69009","ville":"Lyon 09"}
{"name":"\n      Christophe Bacquié    ","rue":"Hotel du Castellet Route des Hauts du Camp","postalcode":"83330","ville":"Le Castellet"}
{"name":"\n      JY'S    ","rue":"17 r. de la Poissonnerie","postalcode":"68000","ville":"Colmar"}
{"name":"\n      Buerehiesel    ","rue":"dans le parc de l'Orangerie","postalcode":"67000","ville":"Strasbourg"}
{"name":"\n      Quai des Saveurs    ","rue":"69 rue de la Gare","postalcode":"57300","ville":"Hagondange"}
{"name":"\n      1131    ","rue":"D 33","postalcode":"21360","ville":"La Bussière-sur-Ouche"}
{"name":"\n      Frédéric Doucet    ","rue":"2 avenue de la Libération","postalcode":"71120","ville":"Charolles"}
{"name":"\n      Agapé    ","rue":"51 rue Jouffroy-d'Abbans","postalcode":"75017","ville":"Paris 17"}
{"name":"\n      Le Saint-Estève    ","rue":"2250 route cézanne D17","postalcode":"13100","ville":"Le Tholonet"}
{"name":"\n      La Grenouillère    ","rue":"19 r. de la Grenouillère","postalcode":"62170","ville":"La Madelaine-sous-Montreuil"}
{"name":"\n      Le Pré Catelan    ","rue":"Route de Suresnes","postalcode":"75016","ville":"Paris"}
{"name":"\n      Agapé    ","rue":"51 rue Jouffroy-d'Abbans","postalcode":"75017","ville":"Paris 17"}
{"name":"\n      Le Saint-Estève    ","rue":"2250 route cézanne D17","postalcode":"13100","ville":"Le Tholonet"}
{"name":"\n      Le Magasin aux Vivres    ","rue":"5 Avenue Ney","postalcode":"57000","ville":"Metz"}
{"name":"\n      La Table Saint-Crescent    ","rue":"68 av. du Gén.-Leclerc","postalcode":"11100","ville":"Narbonne"}
{"name":"\n      Auberge de l'Île Barbe    ","rue":"1 Place Notre-Dame","postalcode":"69009","ville":"Lyon 09"}
{"name":"\n      Le 39V    ","rue":"39 Avenue George V","postalcode":"75008","ville":"Paris 08"}
{"name":"\n      Stéphane Derbord    ","rue":"10 Place du Président Wilson","postalcode":"21000","ville":"Dijon"}
{"name":"\n      La Madeleine    ","rue":"1 Rue Alsace-Lorraine","postalcode":"89100","ville":"Sens"}
{"name":"\n      Le Violon d'Ingres    ","rue":"135 route St-Dominique","postalcode":"75007","ville":"Paris"}
{"name":"\n      La table de Franck Putelat    ","rue":"80 chemin des Anglais","postalcode":"11000","ville":"Carcassonne"}
{"name":"\n      Serge Vieira    ","rue":"Château du Couffour","postalcode":"15110","ville":"Chaudes-Aigues"}
{"name":"\n      Le 39V    ","rue":"39 Avenue George V","postalcode":"75008","ville":"Paris 08"}
{"name":"\n      Le George    ","rue":"31 Avenue George V","postalcode":"75008","ville":"Paris"}
{"name":"\n      Têtedoie    ","rue":"4 rue du Professeur Pierre MARION","postalcode":"69005","ville":"Lyon 05"}
{"name":"\n      Au 14 Février    ","rue":"36 rue du Boeuf","postalcode":"69005","ville":"Lyon"}
{"name":"\n      Le Violon d'Ingres    ","rue":"135 route St-Dominique","postalcode":"75007","ville":"Paris"}
{"name":"\n      La Tour des Vents    ","rue":"Le Moulin de Malfourat","postalcode":"24240","ville":"Monbazillac"}
{"name":"\n      Guy Lassausaie    ","rue":"r. de Belle-Sise","postalcode":"69380","ville":"Chasselay"}
{"name":"\n      Christophe Bacquié    ","rue":"Hotel du Castellet Route des Hauts du Camp","postalcode":"83330","ville":"Le Castellet"}
{"name":"\n      La Bonne Auberge    ","rue":"15 r. Nationale","postalcode":"57350","ville":"Stiring-Wendel"}
{"name":"\n      La table de Franck Putelat    ","rue":"80 chemin des Anglais","postalcode":"11000","ville":"Carcassonne"}
{"name":"\n      Pertica    ","rue":"15 pl. de la République","postalcode":"41100","ville":"Vendôme"}
{"name":"\n      Le Quinzième - Cyril Lignac    ","rue":"14 rue Cauchy","postalcode":"75015","ville":"Paris"}
{"name":"\n      Le Candille    ","rue":"bd C. Rebuffel","postalcode":"06250","ville":"Mougins"}
{"name":"\n      1217    ","rue":"le bourg","postalcode":"69620","ville":"Bagnols"}
{"name":"\n      Le Cerf    ","rue":"30 r. du Gén.-de-Gaulle","postalcode":"67520","ville":"Marlenheim"}
{"name":"\n      Le 7ème Continent    ","rue":"35 av. Gén. -de-Gaulle","postalcode":"68170","ville":"Rixheim"}
{"name":"\n      La Coopérative    ","rue":"2A Route de Caladroy","postalcode":"66720","ville":"Bélesta"}
{"name":"\n      Au 14 Février    ","rue":"2 r. du Portail","postalcode":"36100","ville":"Saint-Valentin"}
{"name":"\n      Astrance    ","rue":"4 r. Beethoven","postalcode":"75016","ville":"Paris"}
{"name":"\n      Château de Locguénolé    ","rue":"Locguenole","postalcode":"56700","ville":"Kervignac"}
{"name":"\n      Le Jardin des Remparts    ","rue":"10 rue Hôtel-Dieu","postalcode":"21200","ville":"Beaune"}
{"name":"\n      Le Restaurant    ","rue":"13 rue des Beaux-Arts","postalcode":"75006","ville":"Paris 06"}
{"name":"\n      La Palmeraie    ","rue":"81 Boulevard de Gigaro","postalcode":"83420","ville":"La Croix-Valmer"}
{"name":"\n      La Table de Nans    ","rue":"corniche du Liouquet","postalcode":"13600","ville":"La Ciotat"}
{"name":"\n      Le Puits du Trésor    ","rue":"21 rte des Quatre-Châteaux","postalcode":"11600","ville":"Lastours"}
{"name":"\n      L'Orangerie du Château    ","rue":"1 Avenue du Docteur Jean Laigret","postalcode":"41000","ville":"Blois"}
{"name":"\n      Auberge Le Prieuré    ","rue":"Le Bourg","postalcode":"47310","ville":"Moirax"}
{"name":"\n      Paul Bocuse    ","rue":"40 Rue de la Plage","postalcode":"69660","ville":"Collonges-au-Mont-d'Or"}
{"name":"\n      La Tour des Vents    ","rue":"Le Moulin de Malfourat","postalcode":"24240","ville":"Monbazillac"}
{"name":"\n      Maison Jeunet    ","rue":"9 r. de l'Hôtel-de-Ville","postalcode":"39600","ville":"Arbois"}
{"name":"\n      La Dame de Pic    ","rue":"20 Rue du Louvre","postalcode":"75001","ville":"Paris 01"}
{"name":"\n      La Liégeoise    ","rue":"digue de mer","postalcode":"62930","ville":"Wimereux"}
{"name":"\n      Les Prés d'Eugénie - Michel Guérard    ","rue":"pl. de l'Impératrice","postalcode":"40320","ville":"Eugénie-les-Bains"}
{"name":"\n      Miraflores    ","rue":"60 r. Garibaldi","postalcode":"69006","ville":"Lyon"}
{"name":"\n      Les Pêcheurs    ","rue":"10 boulevard du Maréchal-Juin","postalcode":"06600","ville":"Antibes"}
{"name":"\n      Le Restaurant des Rois    ","rue":"5 Boulevard du Maréchal Leclerc","postalcode":"06310","ville":"Beaulieu-sur-Mer"}
{"name":"\n      La Gloire    ","rue":"74 av. du Gén.-de-Gaulle","postalcode":"45200","ville":"Montargis"}
{"name":"\n      La Table de Patrick Raingeard    ","rue":"1312 av. Raymond-Poincaré","postalcode":"06360","ville":"EZE-BORD-DE-MER"}
{"name":"\n      Gavroche    ","rue":"4 r. Klein","postalcode":"67000","ville":"Strasbourg"}
{"name":"\n      Flaveurs    ","rue":"32 Grande-Rue","postalcode":"26000","ville":"Valence"}
{"name":"\n      Le Moulin des Quatre Saisons    ","rue":"r. Gallieni","postalcode":"72200","ville":"La Flèche"}
{"name":"\n      L'Esprit de la Violette    ","rue":"10 Avenue de la Violette","postalcode":"13100","ville":"Aix-en-Provence"}
{"name":"\n      La Bastide de Capelongue    ","rue":"Chemin des Cabanes","postalcode":"84480","ville":"Bonnieux"}
{"name":"\n      Au Vieux Couvent    ","rue":"6 r. des Chanoines","postalcode":"67860","ville":"Rhinau"}
{"name":"\n      Le Kaïku    ","rue":"17 r. de la République","postalcode":"64500","ville":"Saint-Jean-de-Luz"}
{"name":"\n      Le Charlemagne    ","rue":"1 route des Vergelesses","postalcode":"21420","ville":"PERNAND-VERGELESSES"}
{"name":"\n      La Table d'Eugène    ","rue":"18 r. Eugène-Sue","postalcode":"75018","ville":"Paris"}
{"name":"\n      Aigue Marine    ","rue":"5 r. M. -Berthelot","postalcode":"22220","ville":"Tréguier"}
{"name":"\n      Brikéténia    ","rue":"142 r. de l'Église","postalcode":"64210","ville":"Guéthary"}
{"name":"\n      La Bergerie    ","rue":"D999","postalcode":"63490","ville":"Sarpoil"}
{"name":"\n      Le Manoir du Lys    ","rue":"D235","postalcode":"61140","ville":"Bagnoles-de-l'Orne"}
{"name":"\n      Frédéric Doucet    ","rue":"2 avenue de la Libération","postalcode":"71120","ville":"Charolles"}
{"name":"\n      Allium    ","rue":"88 bd de Créac'h-Gwen","postalcode":"29000","ville":"Quimper"}
{"name":"\n      Le Pavé d'Auge    ","rue":"D49","postalcode":"14430","ville":"Beuvron-en-Auge"}
{"name":"\n      La Closerie    ","rue":"bd des Platanes","postalcode":"84240","ville":"Ansouis"}
{"name":"\n      TROISGROS    ","rue":"728 Route de Villerest","postalcode":"42155","ville":"Ouches"}
{"name":"\n      Les Pyrénées    ","rue":"19 pl. Ch.-de-Gaulle","postalcode":"64220","ville":"Saint-Jean-Pied-de-Port"}
{"name":"\n      Les Pêcheurs    ","rue":"10 boulevard du Maréchal-Juin","postalcode":"06600","ville":"Antibes"}
{"name":"\n      La Table de Chaintré    ","rue":"72 pl. du Luminaire","postalcode":"71570","ville":"Chaintré"}
{"name":"\n      Umami    ","rue":"8 r. des Dentelles","postalcode":"67000","ville":"Strasbourg"}
{"name":"\n      Rodolphe    ","rue":"35 r. Percière","postalcode":"76000","ville":"Rouen"}
{"name":"\n      Le Domaine Saint Clair by Le W    ","rue":"Le Pelou, Route du Golf,","postalcode":"07430","ville":"Saint-Clair"}
{"name":"\n      La Renaissance    ","rue":"20 av. 2e-Division-Blindée","postalcode":"61200","ville":"Argentan"}
{"name":"\n      La Marine    ","rue":"3 r. Marie-Lemonnier","postalcode":"85330","ville":"L'Herbaudière"}
{"name":"\n      La Maison des Bois-Marc Veyrat    ","rue":"Chemin Rural de Manigod au Col de la Croix Fry","postalcode":"74230","ville":"Manigod"}
{"name":"\n      Dominique Bouchet    ","rue":"11 Rue Treilhard","postalcode":"75008","ville":"Paris"}
{"name":"\n      Au 14 Février    ","rue":"Le Plâtre-Durand","postalcode":"71570","ville":"Saint-Amour-Bellevue"}
{"name":"\n      114, Faubourg    ","rue":"114 r. Fg St-Honoré","postalcode":"75008","ville":"Paris 08"}
{"name":"\n      La Marelle    ","rue":"1593 av. de Lyon","postalcode":"01960","ville":"Péronnas"}
{"name":"\n      Sola    ","rue":"","postalcode":"75005","ville":"Paris 05"}
{"name":"\n      L'Orangerie    ","rue":"31 Avenue George-V","postalcode":"75008","ville":"Paris"}
{"name":"\n      Manoir de Lan-Kerellec    ","rue":"allée centrale de Lan-Kerellec","postalcode":"22560","ville":"Trébeurden"}
{"name":"\n      Hostellerie de l'Abbaye de la Celle    ","rue":"10 Place Général de Gaulle","postalcode":"83170","ville":"La Celle"}
{"name":"\n      Auberge des Saints Pères    ","rue":"212 av. de Nonneville","postalcode":"93600","ville":"Aulnay-sous-Bois"}
{"name":"\n      La Table d'Olivier    ","rue":"3 r. St-Ambroise","postalcode":"19100","ville":"Brive-la-Gaillarde"}
{"name":"\n      Les Cèdres    ","rue":"25 Rue Henri MACHON","postalcode":"26600","ville":"Granges-les-Beaumont"}
{"name":"\n      Auberge du Dun    ","rue":"3 rte de Dieppe","postalcode":"76740","ville":"Le Bourg-Dun"}
{"name":"\n      Domaine de Rochevilaine    ","rue":"à la Pointe de Pen Lan","postalcode":"56190","ville":"Billiers"}
{"name":"\n      Hostellerie de Levernois    ","rue":"Rue du Golf","postalcode":"21200","ville":"Levernois"}
{"name":"\n      Quartier Gourmand    ","rue":"2 av. Gambetta","postalcode":"71700","ville":"Tournus"}
{"name":"\n      Maison Crouzil et Hôtel L'Écrin    ","rue":"20 les Quais","postalcode":"22130","ville":"Plancoët"}
{"name":"\n      Michel Trama    ","rue":"52 r. Royale","postalcode":"47270","ville":"Puymirol"}
{"name":"\n      Chantecler    ","rue":"37 Promenade des Anglais","postalcode":"06000","ville":"NICE"}
{"name":"\n      Avel Vor    ","rue":"25 r. de Locmalo","postalcode":"56290","ville":"Port-Louis"}
{"name":"\n      Auberge du Vert Mont    ","rue":"1318 r. du Mont-Noir","postalcode":"59299","ville":"Boeschepe"}
{"name":"\n      Les Genêts    ","rue":"21 bis Rue de l'Océan","postalcode":"85470","ville":"Brem-sur-Mer"}
{"name":"\n      Château Blanchard    ","rue":"36 rte de St-Galmier","postalcode":"42140","ville":"Chazelles-sur-Lyon"}
{"name":"\n      L'Éveil des Sens    ","rue":"429 bd Paul-Lintier","postalcode":"53100","ville":"Mayenne"}
{"name":"\n      Au Trou Gascon    ","rue":"40 r. Taine","postalcode":"75012","ville":"Paris 12"}
{"name":"\n      Saturne    ","rue":"17 r. N.-D.-des-Victoires","postalcode":"75002","ville":"Paris"}
{"name":"\n      La Villa Madie    ","rue":"av. du Revestel","postalcode":"13260","ville":"Cassis"}
{"name":"\n      La Table de la Bergerie    ","rue":"La Bergerie","postalcode":"49380","ville":"Champ-sur-Layon"}
{"name":"\n      Le Haut-Allier    ","rue":"LE PONT D ALLEYRAS","postalcode":"43580","ville":"Alleyras"}
{"name":"\n      Le Moulin d'Alotz    ","rue":"chemin Alotz-Errota","postalcode":"64200","ville":"Alotz"}
{"name":"\n      Le Pot d'Étain    ","rue":"4 av. de la République","postalcode":"90400","ville":"Danjoutin"}
{"name":"\n      Auberge à la Bonne Idée    ","rue":"3 rue des Meuniers","postalcode":"60350","ville":"SAINT-JEAN-AUX-BOIS"}
{"name":"\n      Skab    ","rue":"7 Rue de la République","postalcode":"30000","ville":"nimes"}
{"name":"\n      Paloma    ","rue":"47 Avenue du Moulin de la Croix","postalcode":"06250","ville":"Mougins"}
{"name":"\n      L'Orée de la Forêt    ","rue":"255 r. de la Forêt","postalcode":"60600","ville":"Étouy"}
{"name":"\n      Penati al Baretto    ","rue":"9 rue Balzac","postalcode":"75008","ville":"Paris 08"}
{"name":"\n      Château de Castel Novel    ","rue":"D133","postalcode":"19240","ville":"Varetz"}
{"name":"\n      Val d'Auge    ","rue":"805 av. du Gén.-de-Gaulle","postalcode":"59910","ville":"Bondues"}
{"name":"\n      Maison Rostang    ","rue":"20 rue Rennequin","postalcode":"75017","ville":"Paris"}
{"name":"\n      Le Village    ","rue":"3 Grande-Rue","postalcode":"78160","ville":"Marly-le-Roi"}
{"name":"\n      Le Restaurant    ","rue":"13 rue des Beaux-Arts","postalcode":"75006","ville":"Paris 06"}
{"name":"\n      Les Bories    ","rue":"rte de l'Abbaye de Sénanque","postalcode":"84220","ville":"Gordes"}
{"name":"\n      Mickaël Féval    ","rue":"11 Petite-Rue-St-Jean","postalcode":"13100","ville":"Aix-en-Provence"}
{"name":"\n      Le Clos St-Pierre    ","rue":"pl. de la Mairie","postalcode":"06650","ville":"Le Rouret"}
{"name":"\n      Le Petit Hôtel du Grand Large    ","rue":"11 quai St-Ivy","postalcode":"56510","ville":"Portivy"}
{"name":"\n      Les Tablettes de Jean-Louis Nomicos    ","rue":"16 avenue Bugeaud","postalcode":"75116","ville":"Paris 16"}
{"name":"\n      Le Montaigu    ","rue":"Domaine de la Bretesche","postalcode":"44780","ville":"Missillac"}
{"name":"\n      Table des Frères Ibarboure    ","rue":"chemin Ttalienea","postalcode":"64210","ville":"Bidart"}
{"name":"\n      Maximin Hellio    ","rue":"64 Rue Gambetta","postalcode":"14800","ville":"DEAUVILLE"}
{"name":"\n      Villa René Lalique    ","rue":"18 Rue Bellevue","postalcode":"67290","ville":"Wingen-sur-Moder"}
{"name":"\n      Le Puits St-Jacques    ","rue":"av. Victor-Capoul","postalcode":"32600","ville":"Pujaudran"}
{"name":"\n      L'Atelier d'Edmond    ","rue":"au Fornet","postalcode":"73150","ville":"Val-d'Isère"}
{"name":"\n      Rackham    ","rue":"27 pl. Lacaze Duthiers rčs de l'église","postalcode":"29680","ville":"ROSCOFF"}
{"name":"\n      L'Arôme    ","rue":"3 rue St-Philippe-du-Roule","postalcode":"75008","ville":"Paris 08"}
{"name":"\n      Le Chiberta    ","rue":"3 Rue Arsène Houssaye","postalcode":"75008","ville":"Paris 08"}
{"name":"\n      Les Explorateurs    ","rue":"place du Slalom","postalcode":"73440","ville":"VAL THORENS"}
{"name":"\n      L'Alchémille    ","rue":"53 rte de Lapoutroie","postalcode":"68240","ville":"Kaysersberg"}
{"name":"\n      La Petite Maison de Cucuron    ","rue":"pl. de l'Étang","postalcode":"84160","ville":"Cucuron"}
{"name":"\n      Le Refuge des Gourmets    ","rue":"90 route des Framboises","postalcode":"74140","ville":"Machilly"}
{"name":"\n      Le Brittany    ","rue":"bd Ste-Barbe","postalcode":"29681","ville":"Roscoff"}
{"name":"\n      L'Esquisse    ","rue":"21 rue Royale","postalcode":"74000","ville":"Annecy"}
{"name":"\n      Le Strasbourg    ","rue":"24 r. du Col. -Teyssier","postalcode":"57230","ville":"Bitche"}
{"name":"\n      L'Auberge des Glazicks    ","rue":"7 rue de la Plage","postalcode":"29550","ville":"PLOMODIERN"}
{"name":"\n      Septime    ","rue":"80 r. de Charonne","postalcode":"75011","ville":"Paris"}
{"name":"\n      Assiette Champenoise    ","rue":"40 av. Paul Vaillant-Couturier","postalcode":"51430","ville":"Tinqueux"}
{"name":"\n      Stéphane Carbone    ","rue":"14 r. de Courtonne","postalcode":"14000","ville":"Caen"}
{"name":"\n      La Marande    ","rue":"rte de Lugny","postalcode":"71260","ville":"Montbellet"}
{"name":"\n      Une Île    ","rue":"9 r. Max-Richard","postalcode":"49000","ville":"Angers"}
{"name":"\n      Aux Pesked    ","rue":"59 Rue du Légué","postalcode":"22000","ville":"Saint-Brieuc"}
{"name":"\n      La Cachette    ","rue":"Rue des Cévennes","postalcode":"26000","ville":"Valence"}
{"name":"\n      Le Pily    ","rue":"39 Grande-Rue","postalcode":"50100","ville":"Cherbourg-en-Cotentin"}
{"name":"\n      Le P'tit Polyte    ","rue":"2 Rue de la Chapelle","postalcode":"38860","ville":"Les Deux Alpes"}
{"name":"\n      La Grande Maison de Bernard Magrez    ","rue":"10 Rue Labottière","postalcode":"33000","ville":"Bordeaux"}
{"name":"\n      Le Neuvième Art    ","rue":"173 r. Cuvier","postalcode":"69006","ville":"Lyon"}
{"name":"\n      Château de Mirambeau    ","rue":"1 Avenue des Comtes Duchatel","postalcode":"17150","ville":"Mirambeau"}
{"name":"\n      Maison Decoret    ","rue":"15 rue du Parc","postalcode":"03200","ville":"Vichy"}
{"name":"\n      La Voile    ","rue":"chemin de la Quessine","postalcode":"83350","ville":"Ramatuelle"}
{"name":"\n      La Bastide de Moustiers    ","rue":"Parc naturel régional du Verdon, Chemin de Quinson","postalcode":"04360","ville":"Moustiers-Sainte-Marie"}
{"name":"\n      St-James Paris    ","rue":"43 av. Bugeaud","postalcode":"75116","ville":"Paris"}
{"name":"\n      Le Pirate    ","rue":"1 le port","postalcode":"20222","ville":"Erbalunga"}
{"name":"\n      L'Ekrin by Laurent Azoulay    ","rue":"Route de la Montée","postalcode":"73550","ville":"MERIBEL"}
{"name":"\n      Alain Ducasse au Plaza Athénée    ","rue":"25 avenue Montaigne","postalcode":"75008","ville":"Paris"}
{"name":"\n      Auberge de la Brie    ","rue":"14 av. Alphonse Boulingre","postalcode":"77860","ville":"Couilly-Pont-aux-Dames"}
{"name":"\n      La Balette    ","rue":"rte de Port-Vendres","postalcode":"66190","ville":"Collioure"}
{"name":"\n      Tour d'Argent    ","rue":"15 quai de la Tournelle","postalcode":"75005","ville":"Paris"}
{"name":"\n      G.a. au Manoir de Rétival    ","rue":"Corniche de Rétival","postalcode":"76490","ville":"Caudebec-en-Caux"}
{"name":"\n      Cayola    ","rue":"76 promenade de Cayola","postalcode":"85180","ville":"Talmont-Saint-Hilaire"}
{"name":"\n      Kasbür    ","rue":"8 Rue de Dettwiller","postalcode":"67700","ville":"Monswiller"}
{"name":"\n      Le Relais Bernard Loiseau    ","rue":"2, rue d'Argentine","postalcode":"21210","ville":"Saulieu"}
{"name":"\n      Le Pergolèse    ","rue":"40, Rue Pergolèse","postalcode":"75016","ville":"Paris"}
{"name":"\n      Mère Brazier    ","rue":"12 rue Royale","postalcode":"69001","ville":"LYON"}
{"name":"\n      Le Fanal    ","rue":"17 Avenue du Fontaulé","postalcode":"66650","ville":"Banyuls-sur-Mer"}
{"name":"\n      1920    ","rue":"373 chemin des follières","postalcode":"74120","ville":"Megève"}
{"name":"\n      Le Moulin de la Gorce    ","rue":"D17","postalcode":"87800","ville":"La Roche-l'Abeille"}
{"name":"\n      La Coquerie    ","rue":"1 chemin du Cimetière-Marin","postalcode":"34200","ville":"Sète"}
{"name":"\n      Clovis    ","rue":"21 Grand-Rue","postalcode":"06140","ville":"Tourrettes-sur-Loup"}
{"name":"\n      La Poste    ","rue":"7 Rue du Général de Gaulle","postalcode":"68400","ville":"Riedisheim"}
{"name":"\n      Pierre Orsi    ","rue":"Place Kléber","postalcode":"69006","ville":"Lyon 06"}
{"name":"\n      Aux Terrasses    ","rue":"18 av. du 23-Janvier","postalcode":"71700","ville":"Tournus"}
{"name":"\n      Château du Mont Joly    ","rue":"6 r. du Mont-Joly","postalcode":"39100","ville":"Sampans"}
{"name":"\n      Relais de la Poste    ","rue":"24 avenue de Maremne","postalcode":"40140","ville":"Magescq"}
{"name":"\n      L'Amaryllis    ","rue":"chemin de Martorey","postalcode":"71100","ville":"Saint-Rémy"}
{"name":"\n      La Table d'Uzès    ","rue":"18 rue du Docteur Blanchard","postalcode":"30700","ville":"Uzès"}
{"name":"\n      Jérémy Galvan    ","rue":"Rue du Boeuf","postalcode":"69005","ville":"Lyon 05"}
{"name":"\n      Auberge du Bon Laboureur    ","rue":"6 r. Dr Bretonneau","postalcode":"37150","ville":"Chenonceaux"}
{"name":"\n      Le Pré du Moulin    ","rue":"rte de Ste-Cécile-les-Vignes","postalcode":"84830","ville":"Sérignan-du-Comtat"}
{"name":"\n      Le Chabichou    ","rue":"90 Route des Chenus","postalcode":"73120","ville":"Courchevel 1850"}
{"name":"\n      Le Cap    ","rue":"71 Boulevard du Général-de-Gaulle","postalcode":"06230","ville":"SAINT-JEAN-CAP-FERRAT"}
{"name":"\n      Le Grand Bleu    ","rue":"43 av. de la Gare","postalcode":"24200","ville":"Sarlat-la-Canéda"}
{"name":"\n      Château de Sully    ","rue":"D6","postalcode":"14400","ville":"Sully"}
{"name":"\n      Qui plume la Lune    ","rue":"50 r. Amelot","postalcode":"75011","ville":"Paris 11"}
{"name":"\n      La Table des Sens    ","rue":"8 r. de Penne","postalcode":"47300","ville":"Villeneuve-sur-Lot"}
{"name":"\n      En Pleine Nature    ","rue":"6 pl. de la Mairie","postalcode":"31130","ville":"Fonsegrives"}
{"name":"\n      Prairial    ","rue":"11 Rue Chavanne","postalcode":"69001","ville":"Lyon"}
{"name":"\n      Auberge La Fenière    ","rue":"D943","postalcode":"84160","ville":"Cadenet"}
{"name":"\n      Le Grand Restaurant - Jean-François Piège    ","rue":"7 r. d'Aguesseau","postalcode":"75008","ville":"Paris"}
{"name":"\n      Hervé Busset    ","rue":"D901","postalcode":"12320","ville":"Conques"}
{"name":"\n      Hostellerie Les Gorges de Pennafort    ","rue":"8660 RD 25","postalcode":"83830","ville":"Callas"}
{"name":"\n      Pic    ","rue":"285 avenue Victor Hugo","postalcode":"26000","ville":"Valence"}
{"name":"\n      Le Farçon    ","rue":"immeuble la Kalinka","postalcode":"73125","ville":"La Tania"}
{"name":"\n      Le Mascaret    ","rue":"1 r. de Bas","postalcode":"50560","ville":"Blainville-sur-Mer"}
{"name":"\n      Hostellerie la Montagne    ","rue":"10 rue Pisseloup","postalcode":"52330","ville":"COLOMBEY-LES-DEUX-EGLISES"}
{"name":"\n      Le Kléber    ","rue":"6 r. A. -Dumont","postalcode":"26400","ville":"Crest"}
{"name":"\n      Auberge St-Jean    ","rue":"8 r. du Pont","postalcode":"33420","ville":"Saint-Jean-de-Blaignac"}
{"name":"\n      Le Château de Sable    ","rue":"38 r. de l'Europe","postalcode":"29840","ville":"Porspoder"}
{"name":"\n      Loiseau des Ducs    ","rue":"3 Rue Vauban","postalcode":"21000","ville":"Dijon"}
{"name":"\n      Yoann Conte    ","rue":"13 Vieille-Route-des-Pensières","postalcode":"74290","ville":"Veyrier-du-Lac"}
{"name":"\n      Toya    ","rue":"av. Jean-Monnet","postalcode":"57380","ville":"Faulquemont"}
{"name":"\n      Le Pavillon des Boulevards    ","rue":"120 r. Croix-de-Seguey","postalcode":"33000","ville":"Bordeaux"}
{"name":"\n      L'Épuisette    ","rue":"158 Vallon-des-Auffes","postalcode":"13007","ville":"Marseille"}
{"name":"\n      Flocons de Sel    ","rue":"1775 rte du Leutaz","postalcode":"74120","ville":"Megève"}
{"name":"\n      Le Lièvre Gourmand    ","rue":"28 quai du Châtelet","postalcode":"45000","ville":"Orléans"}
{"name":"\n      La Lorraine    ","rue":"80 rue Principale","postalcode":"57330","ville":"Zoufftgen"}
{"name":"\n      La Table Breizh Café    ","rue":"7 quai Thomas","postalcode":"35260","ville":"Cancale"}
{"name":"\n      La Ville Blanche    ","rue":"La Ville Blanche","postalcode":"22300","ville":"Rospez"}
{"name":"\n      Le Jules Verne    ","rue":"2<E>ème</E> étage Tour Eiffel","postalcode":"75007","ville":"Paris"}
{"name":"\n      L'Atelier de Jean-Luc Rabanel    ","rue":"7 r. des Carmes","postalcode":"13200","ville":"Arles"}
{"name":"\n      Py-r    ","rue":"19 descente de la Halle-aux-Poissons","postalcode":"31000","ville":"Toulouse"}
{"name":"\n      Le Bec au Cauchois    ","rue":"22 Rue André Fiquet","postalcode":"76540","ville":"Valmont"}
{"name":"\n      Le Vieux Logis    ","rue":"Le Bourg","postalcode":"24510","ville":"Trémolat"}
{"name":"\n      La Vieille Tour    ","rue":"75 r. de la Tour","postalcode":"22190","ville":"Plérin"}
{"name":"\n      Auberge au Boeuf    ","rue":"Rue de l'Eglise","postalcode":"67770","ville":"Sessenheim"}
{"name":"\n      1912    ","rue":"bd de la Cahotte","postalcode":"14360","ville":"Trouville-sur-Mer"}
{"name":"\n      Le Saison    ","rue":"1 imp. du Vieux-Bourg","postalcode":"35760","ville":"Saint-Grégoire"}
{"name":"\n      Le Clair de la Plume    ","rue":"Place du Mail","postalcode":"26230","ville":"Grignan"}
{"name":"\n      Ô Saveurs    ","rue":"8 place Ormeaux au village","postalcode":"31180","ville":"ROUFFIAC-TOLOSAN"}
{"name":"\n      Auberge St-Laurent    ","rue":"1 rue Fontaine","postalcode":"68510","ville":"Sierentz"}
{"name":"\n      Le Chiquito    ","rue":"3 r. de l'Oise, La Bonneville","postalcode":"95540","ville":"Méry-sur-Oise"}
{"name":"\n      Le Pavillon    ","rue":"av. du Verger","postalcode":"62520","ville":"Le Touquet-Paris-Plage"}
{"name":"\n      Le Favre d'Anne    ","rue":"21 bd du Mar.-Foch","postalcode":"49000","ville":"Angers"}
{"name":"\n      La Tour    ","rue":"31 Nouvelle-Place","postalcode":"18300","ville":"Sancerre"}
{"name":"\n      Le Prieuré    ","rue":"7 pl. du Chapitre","postalcode":"30400","ville":"Villeneuve-lès-Avignon"}
{"name":"\n      MaSa    ","rue":"112 avenue Victor-Hugo","postalcode":"92100","ville":"Boulogne-Billancourt"}
{"name":"\n      Restaurant Guy Savoy    ","rue":"Monnaie de Paris11 Quai de Conti","postalcode":"75006","ville":"Paris"}
{"name":"\n      Alliance    ","rue":"5 Rue de Poissy","postalcode":"75005","ville":"Paris"}
{"name":"\n      JAN    ","rue":"12 Rue Lascaris","postalcode":"06000","ville":"Nice"}
{"name":"\n      Dyades au Domaine des Étangs    ","rue":"Les Etangs","postalcode":"16310","ville":"MASSIGNAC"}
{"name":"\n      Frédéric Simonin    ","rue":"25 rue Bayen","postalcode":"75017","ville":"Paris"}
{"name":"\n      Fontevraud Le Restaurant    ","rue":"38 rue St-Jean-de-l'Habit","postalcode":"49590","ville":"FONTEVRAUD-L'ABBAYE"}
{"name":"\n      Atmosphères    ","rue":"618 Route des Tournelles","postalcode":"73370","ville":"Le Bourget-du-Lac"}
{"name":"\n      Elsa    ","rue":"Monte-Carlo Beach - Avenue Princesse Grace","postalcode":"06190","ville":"Roquebrune Cap-Martin"}
{"name":"\n      Radio    ","rue":"43 av. P. et M.-Curie","postalcode":"63400","ville":"Chamalières"}
{"name":"\n      Le Bénaton    ","rue":"25 Rue du Faubourg-Bretonnière","postalcode":"21200","ville":"BEAUNE"}
{"name":"\n      Ze Kitchen Galerie    ","rue":"4 r. des Grands-Augustins","postalcode":"75006","ville":"Paris"}
{"name":"\n      Shang Palace    ","rue":"10 Avenue d'Iéna","postalcode":"75016","ville":"Paris 16"}
{"name":"\n      L'Odas    ","rue":"4 Passage Maurice Lenfant","postalcode":"76000","ville":"Rouen"}
{"name":"\n      Le Montgomerie    ","rue":"356 rte de l'Altiport","postalcode":"73120","ville":"Courchevel 1850"}
{"name":"\n      Le Sénéchal    ","rue":"Sauveterre de Rouergue","postalcode":"12800","ville":"Sauveterre-de-Rouergue"}
{"name":"\n      Roscanvec    ","rue":"17 r. des Halles","postalcode":"56000","ville":"Vannes"}
{"name":"\n      Villa Archange    ","rue":"Rue de l'Ouest","postalcode":"06110","ville":"Le Cannet"}
{"name":"\n      Auberge de la Mine    ","rue":"le Gué-Plat","postalcode":"61450","ville":"La Ferrière-aux-Étangs"}
{"name":"\n      Passions et Gourmandises    ","rue":"6 r. du Square","postalcode":"86280","ville":"Saint-Benoît"}
{"name":"\n      Côté Jardin    ","rue":"14 rte de Bourges","postalcode":"45500","ville":"Gien"}
{"name":"\n      Le Saint-James    ","rue":"3 pl. Camille-Hostein","postalcode":"33270","ville":"BOULIAC"}
{"name":"\n      Château de Germigney    ","rue":"Rue Edgar-Faure","postalcode":"39600","ville":"Port-Lesney"}
{"name":"\n      La Table du Lancaster    ","rue":"7 rue de Berri","postalcode":"75008","ville":"Paris"}
{"name":"\n      Apicius    ","rue":"Marché Saint Pierre 1 étage","postalcode":"63000","ville":"Clermont-Ferrand"}
{"name":"\n      Initial    ","rue":"24 Rue Saint-Manvieu","postalcode":"14000","ville":"Caen"}
{"name":"\n      L'Aquarelle    ","rue":"71 A rte du Montil","postalcode":"17920","ville":"Breuillet"}
{"name":"\n      Aux Anges    ","rue":"6 Place Georges Clemenceau","postalcode":"42300","ville":"Roanne"}
{"name":"\n      L'Étang du Moulin    ","rue":"5 chemin de l'Etang du Moulin","postalcode":"25210","ville":"Bonnétage"}
{"name":"\n      Auberge du Cheval Blanc    ","rue":"4 Route de Wissembourg","postalcode":"67510","ville":"Lembach"}
{"name":"\n      Le Gabriel    ","rue":"42 Avenue Gabriel","postalcode":"75008","ville":"Paris"}
{"name":"\n      Le Carmin    ","rue":"4B Place Carnot","postalcode":"21200","ville":"Beaune"}
{"name":"\n      Il Cortile    ","rue":"11 r. des Franciscains","postalcode":"68100","ville":"Mulhouse"}
{"name":"\n      Le Sérac    ","rue":"22 r. de la Comtesse","postalcode":"74170","ville":"Saint-Gervais-les-Bains"}
{"name":"\n      Le Moulin de l'Abbaye    ","rue":"1 avenue Pierre de Bourdeilles","postalcode":"24310","ville":"BRANTOME"}
{"name":"\n      Pierre Gagnaire    ","rue":"6 Rue Balzac","postalcode":"75008","ville":"Paris 08"}
{"name":"\n      Jean Brouilly    ","rue":"3 ter r. de Paris","postalcode":"69170","ville":"Tarare"}
{"name":"\n      Au Fil du Temps    ","rue":"83 av. Auguste-Renoir","postalcode":"06520","ville":"Magagnosc"}
{"name":"\n      Les Trois Rochers    ","rue":"16 rue du Phare","postalcode":"29120","ville":"Sainte-Marine"}
{"name":"\n      Alain Llorca    ","rue":"350 Route de St-Paul","postalcode":"06480","ville":"La Colle-sur-Loup"}
{"name":"\n      Il Carpaccio – Le Royal Monceau Raffles Paris    ","rue":"37 avenue Hoche","postalcode":"75008","ville":"Paris 08"}
{"name":"\n      Le M    ","rue":"22 r. du Cdt-Drogou","postalcode":"29200","ville":"Brest"}
{"name":"\n      L'Ambroisie    ","rue":"49 rue Elie-Fréron","postalcode":"29000","ville":"Quimper"}
{"name":"\n      Régis et Jacques Marcon    ","rue":"Larsiallas","postalcode":"43290","ville":"SAINT-BONNET-LE-FROID"}
{"name":"\n      Ar Men Du    ","rue":"47 rue des îles","postalcode":"29920","ville":"Névez"}
{"name":"\n      Racine    ","rue":"8 r. Colbert","postalcode":"51100","ville":"Reims"}
{"name":"\n      La Bonne Étape    ","rue":"chemin du lac","postalcode":"04160","ville":"Château-Arnoux"}
{"name":"\n      Entre Vigne et Garrigue    ","rue":"600 route de Saint Bruno","postalcode":"30131","ville":"Pujaut"}
{"name":"\n      Itinéraires    ","rue":"5 r. de Pontoise","postalcode":"75005","ville":"Paris"}
{"name":"\n      L'Aspérule    ","rue":"34 r. du Pont","postalcode":"89000","ville":"Auxerre"}
{"name":"\n      La Laiterie    ","rue":"138 avenue de l'Hippodrome","postalcode":"59130","ville":"Lambersart"}
{"name":"\n      Le Castellaras    ","rue":"461 chemin Peymeyan","postalcode":"83440","ville":"Fayence"}
{"name":"\n      L'Atelier de Joël Robuchon - St-Germain    ","rue":"5 r. de Montalembert","postalcode":"75007","ville":"Paris"}
{"name":"\n      Le Vivarais    ","rue":"5 avenue Expilly","postalcode":"07600","ville":"VALS-LES-BAINS"}
{"name":"\n      Alléno Paris au Pavillon Ledoyen    ","rue":"8 avenue Dutuit","postalcode":"75008","ville":"Paris"}
{"name":"\n      SaQuaNa    ","rue":"22 pl. Hamelin","postalcode":"14600","ville":"Honfleur"}
{"name":"\n      L'Auberge de la Pomme    ","rue":"44 rue de l' eure","postalcode":"27340","ville":"Les Damps"}
{"name":"\n      Mariottat    ","rue":"25 r. L.-Vivent","postalcode":"47000","ville":"Agen"}
{"name":"\n      David Toutain    ","rue":"29 r. Surcouf","postalcode":"75007","ville":"Paris"}
{"name":"\n      L'Aromate    ","rue":"20 av. du Mar.-Foch","postalcode":"06000","ville":"Nice"}
{"name":"\n      Jean-Luc Tartarin    ","rue":"Square Saint-Roch","postalcode":"76600","ville":"Le Havre"}
{"name":"\n      La Scène    ","rue":"33 Avenue George V","postalcode":"75008","ville":"Paris"}
{"name":"\n      L'Escarbille    ","rue":"8 Rue de Vélizy","postalcode":"92190","ville":"Meudon"}
{"name":"\n      La Gourmandière - La Table d'Olivier    ","rue":"D126","postalcode":"56000","ville":"Vannes"}
{"name":"\n      Julien Binz    ","rue":"7 Rue des Cigognes","postalcode":"68770","ville":"Ammerschwihr"}
{"name":"\n      Meurin    ","rue":"Rue de Lillers","postalcode":"62350","ville":"Busnes"}
{"name":"\n      Le Pêché Gourmand    ","rue":"2 rte de Gap","postalcode":"05100","ville":"Briançon"}
{"name":"\n      Albert 1er    ","rue":"38 rte du Bouchet","postalcode":"74400","ville":"Chamonix-Mont-Blanc"}
{"name":"\n      Restaurant du Château    ","rue":"15 avenue des Reynats","postalcode":"24650","ville":"Chancelade"}
{"name":"\n      Hélène Darroze    ","rue":"4 rue d'Assas","postalcode":"75006","ville":"Paris 06"}
{"name":"\n      Le Saint-Martin    ","rue":"Avenue des Templiers","postalcode":"06140","ville":"Vence"}
{"name":"\n      Meulien    ","rue":"1 bis av. des Alpes","postalcode":"71700","ville":"Tournus"}
{"name":"\n      Les Loges    ","rue":"6 r. du Boeuf","postalcode":"69005","ville":"Lyon 05"}
{"name":"\n      Les Tablettes de Jean-Louis Nomicos    ","rue":"16 avenue Bugeaud","postalcode":"75116","ville":"Paris 16"}
{"name":"\n      Aida    ","rue":"1 r. Pierre Leroux","postalcode":"75007","ville":"Paris 07"}
{"name":"\n      Maison Clovis    ","rue":"19 bd Brotteaux","postalcode":"69006","ville":"Lyon"}
{"name":"\n      Le Vivier    ","rue":"800 cours F. Peyre (rte de Carpentras)","postalcode":"84800","ville":"L'Isle-sur-la-Sorgue"}
{"name":"\n      Le Grand Véfour    ","rue":"17 rue de Beaujolais","postalcode":"75001","ville":"Paris"}
{"name":"\n      Casadelmar    ","rue":"Route de la Plage de Palombaggia","postalcode":"20137","ville":"Porto-Vecchio"}
{"name":"\n      L'Axel    ","rue":"43 r. de France","postalcode":"77300","ville":"Fontainebleau"}
{"name":"\n      Château de Montreuil    ","rue":"4 chaussée des Capucins","postalcode":"62170","ville":"Montreuil"}
{"name":"\n      Le Gourmet de Sèze    ","rue":"125 Rue de Sèze","postalcode":"69006","ville":"Lyon"}
{"name":"\n      La Maison de Bournissac    ","rue":"montée d'Eyragues","postalcode":"13550","ville":"Les Paluds-des-Noves"}
{"name":"\n      Relais Louis XIII    ","rue":"8 Rue des Grands Augustins","postalcode":"75006","ville":"Paris"}
{"name":"\n      Ô Flaveurs    ","rue":"Château de Chilly","postalcode":"74140","ville":"Douvaine"}
{"name":"\n      Chez Charles    ","rue":"rte de Calvi","postalcode":"20260","ville":"Lumio"}
{"name":"\n      Les Bas-Rupts    ","rue":"181 rte de la Bresse","postalcode":"88400","ville":"Bas-Rupts"}
{"name":"\n      Passage 53    ","rue":"53 passage des Panoramas","postalcode":"75002","ville":"Paris"}
{"name":"\n      Auberge Frankenbourg    ","rue":"13 r. Gén. de Gaulle","postalcode":"67730","ville":"La Vancelle"}
{"name":"\n      Le Pré - Xavier Beaudiment    ","rue":"3 Route de la Baraque","postalcode":"63830","ville":"Durtol"}
{"name":"\n      Le Patio    ","rue":"10 bd de la Plage","postalcode":"33120","ville":"Arcachon"}
{"name":"\n      Le Bateau Ivre    ","rue":"RD 1504","postalcode":"73370","ville":"Le Bourget-du-Lac"}
{"name":"\n      Carré des Feuillants    ","rue":"14 rue de Castiglione","postalcode":"75001","ville":"Paris 01"}
{"name":"\n      Auberge Tiegezh    ","rue":"7 Place de la Gare","postalcode":"56380","ville":"Guer"}
{"name":"\n      La Matelote    ","rue":"80 Boulevard Ste Beuve","postalcode":"62200","ville":"BOULOGNE-SUR-MER"}
{"name":"\n      Auberge des Templiers    ","rue":"D2007","postalcode":"45290","ville":"Les Bézards"}
{"name":"\n      Les Jardins de l'Espadon    ","rue":"15 place Vendôme","postalcode":"75001","ville":"Paris"}
{"name":"\n      64° Le Restaurant    ","rue":"9-13 Rue du Général de Gaulle","postalcode":"68240","ville":"Kaysersberg"}
{"name":"\n      Le Champ des Lunes    ","rue":"route de Roquefraîche","postalcode":"84360","ville":"Lauris"}
{"name":"\n      Les Rosiers    ","rue":"32 av. Beau Soleil","postalcode":"64200","ville":"Biarritz"}
{"name":"\n      La Palme d'Or    ","rue":"73 Boulevard de la Croisette","postalcode":"06400","ville":"Cannes"}
{"name":"\n      Jean-Claude Leclerc    ","rue":"12 rue St-Adjutor","postalcode":"63000","ville":"Clermont-Ferrand"}
{"name":"\n      Girardin    ","rue":"19 Rue des Têtes","postalcode":"68000","ville":"Colmar"}
{"name":"\n      Henri et Joseph    ","rue":"4 r. Léo-le-Bourgo","postalcode":"56100","ville":"Lorient"}
{"name":"\n      Auberge du Paradis    ","rue":"Le Plâtre-Durand","postalcode":"71570","ville":"Saint-Amour-Bellevue"}
{"name":"\n      Les Trois Soleils de Montal    ","rue":"St-Jean-Lespinasse","postalcode":"46400","ville":"Saint-Céré"}
{"name":"\n      Le Prieuré    ","rue":"r. de la Mairie","postalcode":"42820","ville":"Ambierle"}
{"name":"\n      Le Domaine du Colombier    ","rue":"270 Chemin de Malombre","postalcode":"26780","ville":"Malataverne"}
{"name":"\n      L'Arnsbourg    ","rue":"Untermuhlthal","postalcode":"57230","ville":"Baerenthal"}
{"name":"\n      Grand Hôtel du Lion d'Or    ","rue":"69 r. Clemenceau","postalcode":"41200","ville":"Romorantin-Lanthenay"}
{"name":"\n      Château de Mercuès    ","rue":"Route du Château","postalcode":"46090","ville":"Mercuès"}
{"name":"\n      Le Gambetta    ","rue":"12 r. Gambetta","postalcode":"49400","ville":"Saumur"}
{"name":"\n      La Grande Cascade    ","rue":"Carrefour de Longchamp","postalcode":"75016","ville":"Paris"}
{"name":"\n      Château de Pray    ","rue":"Rue du Cèdre","postalcode":"37400","ville":"Amboise"}
{"name":"\n      Une Table au Sud    ","rue":"2 quai du Port","postalcode":"13002","ville":"Marseille"}
{"name":"\n      Le Bon Accueil    ","rue":"32 Grande-Rue","postalcode":"25160","ville":"MALBUISSON"}
{"name":"\n      Les Clefs d'Argent    ","rue":"333 Avenue des Martyrs de la Résistance","postalcode":"40000","ville":"Mont-de-Marsan"}
{"name":"\n      Yam'Tcha    ","rue":"121 r. St-Honoré","postalcode":"75001","ville":"Paris"}
{"name":"\n      Mon Plaisir    ","rue":"22 lieu-dit Journal","postalcode":"25190","ville":"Chamesol"}
{"name":"\n      Le Foch    ","rue":"37 bd Foch","postalcode":"51100","ville":"Reims"}
{"name":"\n      Hexagone    ","rue":"85 Avenue Kléber","postalcode":"75016","ville":"Paris"}
{"name":"\n      Benoit    ","rue":"20 Rue St-Martin","postalcode":"75004","ville":"Paris 04"}
{"name":"\n      Le Jardin des Remparts    ","rue":"10 rue Hôtel-Dieu","postalcode":"21200","ville":"Beaune"}
{"name":"\n      Le Bouche à Oreille    ","rue":"11 r. de la Chapelle","postalcode":"91150","ville":"Boutervilliers"}
{"name":"\n      Château de Noirieux    ","rue":"26 Route du Moulin","postalcode":"49125","ville":"Briollay"}
{"name":"\n      Au Déjeuner de Sousceyrac    ","rue":"r. Pierre-Benoit","postalcode":"46190","ville":"Sousceyrac"}
{"name":"\n      La Réserve Rimbaud    ","rue":"820 Avenue de Saint-Maur","postalcode":"34000","ville":"Montpellier"}
{"name":"\n      Maison Lameloise    ","rue":"36 pl. d'Armes","postalcode":"71150","ville":"Chagny"}
{"name":"\n      Paul Bocuse    ","rue":"40 Rue de la Plage","postalcode":"69660","ville":"Collonges-au-Mont-d'Or"}
{"name":"\n      Épicure    ","rue":"112 r. Fg St-Honoré","postalcode":"75008","ville":"Paris 08"}
{"name":"\n      Greuze    ","rue":"1 r. A. Thibaudet","postalcode":"71700","ville":"Tournus"}
{"name":"\n      Christopher Coutanceau    ","rue":"Promenade de la Concurrence","postalcode":"17000","ville":"La Rochelle"}
{"name":"\n      Maison Prévôt    ","rue":"353 av. de Verdun","postalcode":"84300","ville":"Cavaillon"}
{"name":"\n      Les Ducs de Lorraine    ","rue":"5 av. Provence","postalcode":"88000","ville":"Épinal"}
{"name":"\n      Auberge de Clochemerle    ","rue":"Rue Gabriel-Chevallier","postalcode":"69460","ville":"VAUX-EN-BEAUJOLAIS"}
{"name":"\n      La Gouesnière    ","rue":"1 Le Limonay","postalcode":"35400","ville":"Saint-Méloir-des-Ondes"}
{"name":"\n      L'Amphitryon    ","rue":"127 r. du Col. -Müller","postalcode":"56100","ville":"Lorient"}
{"name":"\n      La Grand'Vigne    ","rue":"chemin de Smith-Haut-Lafitte","postalcode":"33650","ville":"Martillac"}
{"name":"\n      Auberge St-Walfrid    ","rue":"58 r. de Grosbliederstroff","postalcode":"57200","ville":"Sarreguemines"}
{"name":"\n      Le Colombier    ","rue":"r. Loucheur","postalcode":"76550","ville":"Offranville"}
{"name":"\n      Le Carré d'Alethius    ","rue":"4 r. Paul-Bertois","postalcode":"07800","ville":"Charmes-sur-Rhône"}
{"name":"\n      La Table    ","rue":"32 Rue de la Barre","postalcode":"59000","ville":"Lille"}
{"name":"\n      L'Aubergade    ","rue":"78 rte Nationale","postalcode":"80480","ville":"Dury"}
{"name":"\n      La Galinette    ","rue":"23 r. Jean Payra","postalcode":"66000","ville":"Perpignan"}
{"name":"\n      Mathieu Pacaud - Histoires    ","rue":"85 Avenue Kléber","postalcode":"75016","ville":"Paris"}
{"name":"\n      Jin    ","rue":"6 Rue de la Sourdière","postalcode":"75001","ville":"Paris"}
{"name":"\n      Château de Codignat    ","rue":"Bort l'Etang","postalcode":"63190","ville":"Bort-l'Étang"}
{"name":"\n      Jérôme Nutile - Le Mas de Boudan    ","rue":"351 Chemin du Mas de Boudan","postalcode":"30000","ville":"Nîmes"}
{"name":"\n      Auberge de la Charme    ","rue":"12 r. de la Charme","postalcode":"21370","ville":"Prenois"}
{"name":"\n      Le Bistro des Saveurs    ","rue":"35 Rue de Sélestat","postalcode":"67210","ville":"Obernai"}
{"name":"\n      La Maison d'à Côté    ","rue":"17 rue de Chambord","postalcode":"41350","ville":"Montlivault"}
{"name":"\n      Pur' - Jean-François Rouquette    ","rue":"5 r. de la Paix","postalcode":"75002","ville":"Paris 02"}
{"name":"\n      Le Jardin de Benjamin    ","rue":"Route de Salernes","postalcode":"83510","ville":"Lorgues"}
{"name":"\n      Cyril Attrazic    ","rue":"10 rte du Languedoc","postalcode":"48130","ville":"Aumont-Aubrac"}
{"name":"\n      Auberge du Pont d'Acigné    ","rue":"D392","postalcode":"35530","ville":"Noyal-sur-Vilaine"}
{"name":"\n      Loiseau des Vignes    ","rue":"31 Rue Jean Francois Maufoux","postalcode":"21200","ville":"Beaune"}
{"name":"\n      La Passagère    ","rue":"33 boulevard E. -Baudoin","postalcode":"06160","ville":"Juan-les-Pins"}
{"name":"\n      Assa    ","rue":"189 Quai Ulysse Besnard","postalcode":"41000","ville":"Blois"}
{"name":"\n      Le Clocher des Pères    ","rue":"D213","postalcode":"73130","ville":"Saint-Martin-sur-la-Chambre"}
{"name":"\n      Étincelles - La Gentilhommière    ","rue":"","postalcode":"24440","ville":"Sainte-Sabine"}
{"name":"\n      La Maison des Cariatides    ","rue":"28 rue Chaudronnerie","postalcode":"21000","ville":"Dijon"}
{"name":"\n      La Scène Thélème    ","rue":"18 Rue Troyon","postalcode":"75017","ville":"Paris"}
{"name":"\n      L'Océan    ","rue":"43 bd Thiers","postalcode":"64500","ville":"Saint-Jean-de-Luz"}
{"name":"\n      La Table du Connétable    ","rue":"4 Rue du Connétable","postalcode":"60500","ville":"Chantilly"}
{"name":"\n      Goûts et Couleurs    ","rue":"38 r. Bonald","postalcode":"12000","ville":"Rodez"}
{"name":"\n      Maximilien    ","rue":"19a rte Ostheim","postalcode":"68340","ville":"Zellenberg"}
{"name":"\n      Hostellerie de Plaisance    ","rue":"5 place du Clocher","postalcode":"33330","ville":"Saint-Emilion"}
{"name":"\n      La Rotonde    ","rue":"200 Avenue du Casino","postalcode":"69890","ville":"La Tour-de-Salvagny"}
{"name":"\n      L'Essentiel    ","rue":"8 r. de la Clarté","postalcode":"24000","ville":"Périgueux"}
{"name":"\n      Gill    ","rue":"9 quai de la Bourse","postalcode":"76000","ville":"Rouen"}
{"name":"\n      AM par Alexandre Mazzia    ","rue":"9 rue François Rocca","postalcode":"13008","ville":"Marseille"}
{"name":"\n      La Nouvelle Auberge    ","rue":"9 route Nationale","postalcode":"68230","ville":"Wihr-au-Val"}
{"name":"\n      La Table du 11    ","rue":"8 rue de la chancellerie","postalcode":"78000","ville":"Versailles"}
{"name":"\n      Les Bacchanales    ","rue":"247 avenue de Provence","postalcode":"06140","ville":"VENCE"}
{"name":"\n      Pierre    ","rue":"7-9 rue Joseph Dufour","postalcode":"71000","ville":"Mâcon"}
{"name":"\n      Takao Takano    ","rue":"33 Rue Malesherbes","postalcode":"69006","ville":"Lyon 06"}
{"name":"\n      Jérôme Brochot    ","rue":"Place Beaubernard","postalcode":"71300","ville":"Montceau-les-Mines"}
{"name":"\n      La Chassagnette    ","rue":"route du Sambuc","postalcode":"13200","ville":"Arles"}
{"name":"\n      Alcyone    ","rue":"1 Place Daviel","postalcode":"13002","ville":"MARSEILLE"}
{"name":"\n      Le Cloître    ","rue":"Le Cloitre","postalcode":"04300","ville":"Mane"}
{"name":"\n      Likoké    ","rue":"7 rte de Païolive","postalcode":"07140","ville":"Les Vans"}
{"name":"\n      Le Grand Cerf    ","rue":"50 rte Nationale","postalcode":"51500","ville":"Montchenot"}
{"name":"\n      Georges Blanc    ","rue":"pl. du Marché","postalcode":"01540","ville":"Vonnas"}
{"name":"\n      La Vague d'Or    ","rue":"Plage de Bouillabaisse","postalcode":"83990","ville":"Saint-Tropez"}
{"name":"\n      Alexandre    ","rue":"2 rue Xavier Tronc","postalcode":"30128","ville":"Garons"}
{"name":"\n      La Grange de Belle-Église    ","rue":"28 bd René-Aimé-Lagabrielle","postalcode":"60540","ville":"Belle-Église"}
{"name":"\n      La Ribaudière    ","rue":"2 pl. du Port","postalcode":"16200","ville":"Bourg-Charente"}
{"name":"\n      Restaurant du Palais Royal    ","rue":"110 Galerie de Valois - Jardin du Palais Royal","postalcode":"75001","ville":"Paris 01"}
{"name":"\n      Le 1947    ","rue":"Cheval Blanc Courchevel - Le Jardin Alpin","postalcode":"73120","ville":"Courchevel 1850"}
{"name":"\n      La Table des Blot - Auberge du Château    ","rue":"1 Grande-Rue","postalcode":"78720","ville":"Dampierre-en-Yvelines"}
{"name":"\n      La Roya    ","rue":"plage de la Roya","postalcode":"20217","ville":"Saint-Florent"}
{"name":"\n      Le Hittau    ","rue":"1 rue du Nouaou","postalcode":"40230","ville":"SAINT-VINCENT-DE-TYROSSE"}
{"name":"\n      Hostellerie du Rosenmeer    ","rue":"45 avenue de la Gare","postalcode":"67560","ville":"ROSHEIM"}
{"name":"\n      L'Atlantide 1874 - Maison Guého    ","rue":"5 r. de l'Hermitage","postalcode":"44100","ville":"Nantes"}
{"name":"\n      La Table du Gourmet    ","rue":"5 rue 1ère Armée","postalcode":"68340","ville":"Riquewihr"}
{"name":"\n      Mirazur    ","rue":"30, Avenue Aristide Briand","postalcode":"06500","ville":"Menton"}
{"name":"\n      La Bastide St-Antoine    ","rue":"48 av. Henri-Dunant","postalcode":"06130","ville":"Grasse"}
{"name":"\n      Le Camélia    ","rue":"7 quai Georges Clemenceau","postalcode":"78380","ville":"Bougival"}
{"name":"\n      Logis de la Cadène    ","rue":"Place du Marche au Bois","postalcode":"33330","ville":"Saint Emilion"}
{"name":"\n      Palm Beach    ","rue":"route des Iles Sanguinaires","postalcode":"20000","ville":"Ajaccio"}
{"name":"\n      Le Georges    ","rue":"22 pl. des Épars","postalcode":"28000","ville":"CHARTRES"}
{"name":"\n      L'Escargot 1903    ","rue":"18 rue Charles-Lorilleux","postalcode":"92800","ville":"Puteaux"}
{"name":"\n      Au Crocodile    ","rue":"10 rue de L'Outre","postalcode":"67000","ville":"STRASBOURG"}
{"name":"\n      Hostellerie Bérard    ","rue":"Avenue Gabriel-Péri","postalcode":"83740","ville":"LA-CADIERE-D'AZUR"}
{"name":"\n      Les Belles Perdrix de Troplong-Mondot    ","rue":"1, Lieu-dit Mondot","postalcode":"33330","ville":"Saint-Émilion"}
{"name":"\n      Dominique Bucaille    ","rue":"715 av. des Savels","postalcode":"04100","ville":"Manosque"}
{"name":"\n      Michel Chabran - La Grande Table    ","rue":"29 Avenue du Quarante-Cinquième Parallèle","postalcode":"26600","ville":"Pont-de-l'Isère"}
{"name":"\n      L'Oustau de Baumanière    ","rue":"Village des Baux-de-Provence","postalcode":"13520","ville":"Les Baux-de-Provence"}
{"name":"\n      Le St-Placide    ","rue":"6 place du poncel","postalcode":"35400","ville":"Saint-Malo"}
{"name":"\n      Les Fresques    ","rue":"D18","postalcode":"24240","ville":"Monestier"}
{"name":"\n      Fanny Rey et Jonathan Wahid    ","rue":"12, boulevard Mirabeau","postalcode":"13210","ville":"SAINT REMY DE PROVENCE"}
{"name":"\n      Michel Sarran    ","rue":"21 bd A.-Duportal","postalcode":"31000","ville":"Toulouse"}
{"name":"\n      À Contre Sens    ","rue":"8 r. des Croisiers","postalcode":"14000","ville":"Caen"}
{"name":"\n      Patrick Jeffroy    ","rue":"20 rue du Kelenn","postalcode":"29660","ville":"Carantec"}
{"name":"\n      L'Aparté    ","rue":"21 Rue de l’Europe","postalcode":"31850","ville":"MONTRABE"}
{"name":"\n      Cobéa    ","rue":"11 r. Raymond Losserand","postalcode":"75014","ville":"Paris 14"}
{"name":"\n      Le Park 45    ","rue":"45 bd de la Croisette","postalcode":"06400","ville":"Cannes"}
{"name":"\n      La Grignotière    ","rue":"6 Rue Jean Jaures","postalcode":"59590","ville":"Raismes"}
{"name":"\n      La Chèvre d'Or    ","rue":"r. du Barri","postalcode":"06360","ville":"Èze"}
{"name":"\n      Sylvestre    ","rue":"79 rue St-Dominique","postalcode":"75007","ville":"Paris"}
{"name":"\n      Le Parc Les Crayères    ","rue":"64 Boulevard Henry Vasnier","postalcode":"51100","ville":"Reims"}
{"name":"\n      Claude Darroze    ","rue":"95 cours Gén. Leclerc","postalcode":"33210","ville":"Langon"}
{"name":"\n      La Marine    ","rue":"11 r. de Paris","postalcode":"50270","ville":"Barneville-Carteret"}
{"name":"\n      La Promenade    ","rue":"11 rue du Savoureulx","postalcode":"37350","ville":"Le Petit-Pressigny"}
{"name":"\n      Auberge de l'Ill    ","rue":"2 rue de Collonges-au-Mont d'Or","postalcode":"68970","ville":"Illhaeusern"}
{"name":"\n      Gordon Ramsay au Trianon    ","rue":"1 bd de la Reine","postalcode":"78000","ville":"Versailles"}
{"name":"\n      Restaurant de Lauzun    ","rue":"3 bd de l'Esplanade","postalcode":"34150","ville":"Gignac"}
{"name":"\n      Au Souper Fin    ","rue":"1 rte de Clères","postalcode":"76690","ville":"Frichemesnil"}
{"name":"\n      Le Cinq    ","rue":"31 av. George V","postalcode":"75008","ville":"Paris 08"}
{"name":"\n      Le Lido    ","rue":"42 av. Napoléon-III","postalcode":"20110","ville":"Propriano"}
{"name":"\n      Anne de Bretagne    ","rue":"163, Boulevard de la Tara","postalcode":"44770","ville":"La Plaine-sur-Mer"}
{"name":"\n      La Table de l'Espadon    ","rue":"15 Place Vendôme","postalcode":"75001","ville":"Paris"}
{"name":"\n      Les Terraillers    ","rue":"11 Route Chemin-Neuf","postalcode":"06410","ville":"Biot"}
{"name":"\n      Le Prince Noir - Vivien Durand    ","rue":"1 rue du Prince Noir","postalcode":"33310","ville":"Lormont"}
{"name":"\n      Auberge de la Diligence    ","rue":"4 r. de la Libération","postalcode":"49440","ville":"Loiré"}
{"name":"\n      Le Pressoir    ","rue":"7 r. de l'Hôpital","postalcode":"56890","ville":"Saint-Avé"}
{"name":"\n      Ivan Vautier    ","rue":"3 avenue Henry-Chéron","postalcode":"14000","ville":"Caen"}
{"name":"\n      Le Gindreau    ","rue":"D5","postalcode":"46150","ville":"Saint-Médard"}
{"name":"\n      Domaine de Clairefontaine    ","rue":"chemin des Fontanettes","postalcode":"38121","ville":"Chonas-l'Amballan"}
{"name":"\n      La Maison dans le Parc    ","rue":"3 r. Ste-Catherine","postalcode":"54000","ville":"Nancy"}
{"name":"\n      Auberge de l'Abbaye    ","rue":"47 place des anciens Combattants","postalcode":"01500","ville":"Ambronay"}
{"name":"\n      Le Taillevent    ","rue":"15 Rue Lamennais","postalcode":"75008","ville":"Paris"}
{"name":"\n      Domaine des Séquoias    ","rue":"54 Vie-de-Boussieu","postalcode":"38300","ville":"Ruy"}
{"name":"\n      1741    ","rue":"22 Quai des Bateliers","postalcode":"67000","ville":"Strasbourg"}
{"name":"\n      La Bouitte    ","rue":"Saint Marcel","postalcode":"73440","ville":"Saint-Martin-de-Belleville"}
{"name":"\n      Haut Bonheur de la Table    ","rue":"18 Grand-Place","postalcode":"59670","ville":"Cassel"}
{"name":"\n      Le Cercle    ","rue":"44 bd Lahitolle","postalcode":"18000","ville":"Bourges"}
{"name":"\n      Le Mas du Langoustier    ","rue":"","postalcode":"83400","ville":"Hyères"}
{"name":"\n      Arpège    ","rue":"84 Rue de Varenne","postalcode":"75007","ville":"Paris"}
{"name":"\n      Origine    ","rue":"26 rampe Cauchoise","postalcode":"76000","ville":"Rouen"}
{"name":"\n      Manoir de la Boulaie    ","rue":"33 rue Chapelle St-Martin","postalcode":"44115","ville":"HAUTE-GOULAINE"}
{"name":"\n      L'Atelier de Joël Robuchon - Étoile    ","rue":"133 av. des Champs-Élysées","postalcode":"75008","ville":"Paris"}
{"name":"\n      Auguste    ","rue":"54 r. Bourgogne","postalcode":"75007","ville":"Paris 07"}
{"name":"\n      Lamartine    ","rue":"Route du Tunnel du Chat","postalcode":"73370","ville":"Le Bourget du Lac"}
{"name":"\n      La Mare aux Oiseaux    ","rue":"223 RUE DU CHEF DE L'ILE Fedrun","postalcode":"44720","ville":"Saint-Joachim"}
{"name":"\n      Sur Mesure par Thierry Marx    ","rue":"251 r. St-Honoré","postalcode":"75001","ville":"Paris 01"}
{"name":"\n      La Licorne Royale    ","rue":"27 Place Isaac Benserade","postalcode":"27480","ville":"Lyons-la-Forêt"}
{"name":"\n      L'Atelier du Peintre    ","rue":"1 Rue Schongauer","postalcode":"68000","ville":"Colmar"}
{"name":"\n      Ithurria    ","rue":"pl. du Fronton","postalcode":"64250","ville":"Ainhoa"}
{"name":"\n      Les Voiles d'Or    ","rue":"2 chemin de la Falaise","postalcode":"76200","ville":"Dieppe"}
{"name":"\n      Chez Michèle    ","rue":"57 rue Principale","postalcode":"57810","ville":"Languimberg"}
{"name":"\n      William Frachot    ","rue":"5 rue Michelet","postalcode":"21000","ville":"DIJON"}
{"name":"\n      La Fourchette du Printemps    ","rue":"30 r. du Printemps","postalcode":"75017","ville":"Paris"}
{"name":"\n      La Rastègue    ","rue":"48 bd du Levant","postalcode":"83230","ville":"Bormes-les-Mimosas"}
{"name":"\n      Le Corot    ","rue":"55 Rue de Versailles","postalcode":"92410","ville":"VILLE-D'AVRAY"}
{"name":"\n      I Salti    ","rue":"route du Reginu","postalcode":"20226","ville":"Belgodère"}
{"name":"\n      L'Abeille    ","rue":"10 Avenue d'Iéna","postalcode":"75016","ville":"Paris 16"}
{"name":"\n      Neige d'Été    ","rue":"12 Rue de l'Amiral Roussin","postalcode":"75015","ville":"Paris 15"}
{"name":"\n      Le Clarence    ","rue":"31 Avenue Franklin Delano Roosevelt","postalcode":"75008","ville":"Paris 08"}
{"name":"\n      Gaya Rive Gauche par Pierre Gagnaire    ","rue":"44 r. du Bac","postalcode":"75007","ville":"Paris"}
{"name":"\n      Le Clos des Sens    ","rue":"13 r. J. -Mermoz","postalcode":"74940","ville":"Annecy"}
{"name":"\n      La Robe    ","rue":"3 pl. Reveillère-Lepeaux","postalcode":"85600","ville":"Montaigu"}
{"name":"\n      Terre-Mer    ","rue":"16 r. du Jeu-de-Paume","postalcode":"56400","ville":"Auray"}
{"name":"\n      Relais de la Poste    ","rue":"21 rue du Gén. -de-Gaulle","postalcode":"67610","ville":"LA-WANTZENAU"}
{"name":"\n      Auberge du Cellier    ","rue":"1 Rue de Sainte-Eugénie","postalcode":"66720","ville":"Montner"}
{"name":"\n      Le Carrousel    ","rue":"14 rue du Pont de Morge","postalcode":"63350","ville":"MARINGUES"}
{"name":"\n      La Pyramide-Patrick Henriroux    ","rue":"14 Boulevard Fernand Point","postalcode":"38200","ville":"Vienne"}
{"name":"\n      Kei    ","rue":"5 rue du Coq-Héron","postalcode":"75001","ville":"Paris 01"}
{"name":"\n      La Ciboulette    ","rue":"10 r. Vaugelas","postalcode":"74000","ville":"Annecy"}
{"name":"\n      Les Morainières    ","rue":"route de Marétel","postalcode":"73170","ville":"Jongieux"}
{"name":"\n      ES    ","rue":"91 r. de Grenelle","postalcode":"75007","ville":"Paris"}
{"name":"\n      Thierry Drapeau    ","rue":"La Chabotterie","postalcode":"85260","ville":"Saint-Sulpice-le-Verdon"}
{"name":"\n      Le France    ","rue":"8 place Cupillard","postalcode":"25130","ville":"VILLERS-LE-LAC"}
{"name":"\n      Antoine    ","rue":"10 av. de New-York","postalcode":"75116","ville":"Paris 16"}
{"name":"\n      Le Musigny    ","rue":"90 Avenue de Liege","postalcode":"59300","ville":"Valenciennes"}
{"name":"\n      Le Pressoir d'Argent - Gordon Ramsay    ","rue":"2,5 Place de la Comédie","postalcode":"33000","ville":"Bordeaux"}
{"name":"\n      Lucas Carton    ","rue":"9 pl. de la Madeleine","postalcode":"75008","ville":"Paris 08"}
{"name":"\n      Numéro 3    ","rue":"3 rue du Général de Gaulle","postalcode":"78490","ville":"Le Tremblay-sur-Mauldre"}
{"name":"\n      Le Pré Catelan    ","rue":"Route de Suresnes","postalcode":"75016","ville":"Paris"}
{"name":"\n      Bras    ","rue":"rte de l'Aubrac","postalcode":"12210","ville":"Laguiole"}
{"name":"\n      Le Belrose    ","rue":"Boulevard des Crêtes","postalcode":"83580","ville":"Gassin"}
{"name":"\n      L'Impertinent    ","rue":"5, rue d'Alsace","postalcode":"64200","ville":"Biarritz"}
{"name":"\n      Le Jardin des Plumes    ","rue":"1 Rue du Milieu","postalcode":"27620","ville":"Giverny"}
{"name":"\n      Les Climats    ","rue":"41 rue de Lille","postalcode":"75007","ville":"Paris 07"}
{"name":"\n      Le Passe Temps    ","rue":"52 Rue Tronchet","postalcode":"69006","ville":"Lyon"}
{"name":"\n      L'Ambroisie    ","rue":"9 Place des Vosges","postalcode":"75004","ville":"Paris"}
{"name":"\n      Faventia    ","rue":"3100 route de Bagnols-en-Forêt","postalcode":"83440","ville":"Tourrettes"}
{"name":"\n      L'Alexandrin    ","rue":"83 r. Moncey","postalcode":"69003","ville":"Lyon"}
{"name":"\n      Les Hautes Roches    ","rue":"86 quai de Loire","postalcode":"37210","ville":"Rochecorbon"}
{"name":"\n      L'Archeste    ","rue":"79 rue de la Tour","postalcode":"75116","ville":"Paris"}
{"name":"\n      Xavier Mathieu    ","rue":"Route de Murs","postalcode":"84220","ville":"Joucas"}
{"name":"\n      Apicius    ","rue":"20 r. d'Artois","postalcode":"75008","ville":"Paris"}
{"name":"\n      Château d'Adoménil    ","rue":"","postalcode":"54300","ville":"Lunéville"}
{"name":"\n      En Marge    ","rue":"Route de Lacroix Falgarde - lieu dit Birol","postalcode":"31320","ville":"Aureville"}
{"name":"\n      Le Kintessence    ","rue":"Rue des Clarines","postalcode":"73120","ville":"Courchevel 1850"}
{"name":"\n      La Table de l'Alpaga    ","rue":"66 Allée des Marmousets","postalcode":"74120","ville":"Megève"}
{"name":"\n      L'Imaginaire    ","rue":"1 route de la Fontaine-St-Julien","postalcode":"24120","ville":"Terrasson-Lavilledieu"}
{"name":"\n      Pages    ","rue":"4 r. Auguste-Vacquerie","postalcode":"75016","ville":"Paris"}
{"name":"\n      L'Inédit    ","rue":"20 avenue de Fontainebleau","postalcode":"77310","ville":"Ponthierry"}
{"name":"\n      JY'S    ","rue":"17 r. de la Poissonnerie","postalcode":"68000","ville":"Colmar"}
{"name":"\n      Octopus    ","rue":"12, rue François Adrien Boieldieu","postalcode":"34500","ville":"Béziers"}
{"name":"\n      Les Tables de Gaspard    ","rue":"r. Principale","postalcode":"05600","ville":"St-Crépin"}
{"name":"\n      Baumanière 1850    ","rue":"rte de Bellecôte","postalcode":"73120","ville":"Courchevel 1850"}
{"name":"\n      Maison Christian Étienne    ","rue":"10 Rue de Mons","postalcode":"84000","ville":"Avignon"}
{"name":"\n      La Fourchette des Ducs    ","rue":"6 r. de la Gare","postalcode":"67210","ville":"Obernai"}
{"name":"\n      Les Chênes Verts    ","rue":"rte de Villecroze","postalcode":"83690","ville":"Tourtour"}
{"name":"\n      Vieux Pont    ","rue":"","postalcode":"12390","ville":"BELCASTEL"}
{"name":"\n      L'Auberge Basque    ","rue":"quartier Helbarron","postalcode":"64310","ville":"Saint-Pée-sur-Nivelle"}
{"name":"\n      Flaveur    ","rue":"25 Rue Gubernatis","postalcode":"06000","ville":"Nice"}
{"name":"\n      Bruno    ","rue":"2350 route des Arcs, Campagne Mariette","postalcode":"83510","ville":"Lorgues"}
{"name":"\n      Domaine d'Auriac    ","rue":"Route de Saint-Hilaire","postalcode":"11000","ville":"Carcassonne"}
{"name":"\n      Azimut    ","rue":"Immeuble l'Or Blanc","postalcode":"73120","ville":"Courchevel-Saint-Bon"}
{"name":"\n      Le Figuier de St-Esprit    ","rue":"7, Promenade Amiral de Grasse","postalcode":"06600","ville":"Antibes"}
{"name":"\n      Garance    ","rue":"34 r. St-Dominique","postalcode":"75007","ville":"Paris"}
{"name":"\n      La Butte    ","rue":"10 rue de la Mer","postalcode":"29260","ville":"PLOUIDER"}
{"name":"\n      Pont de l'Ouysse    ","rue":"D23","postalcode":"46200","ville":"Lacave"}
{"name":"\n      L'Olivier    ","rue":"25 Route des Carles","postalcode":"83990","ville":"Saint-Tropez"}
{"name":"\n      Le Belvédère    ","rue":"11 rte du Maquis Jean-Pierre","postalcode":"12340","ville":"Bozouls"}
{"name":"\n      Le St-Martin    ","rue":"1 r. du Gén.-Leclerc","postalcode":"25200","ville":"Montbéliard"}
{"name":"\n      Le Coquillage    ","rue":"Lieu-dit Le Buot","postalcode":"35350","ville":"Saint-Méloir-des-Ondes"}
{"name":"\n      Le Millénaire    ","rue":"4 rue Bertin","postalcode":"51100","ville":"Reims"}
{"name":"\n      L'Atelier de Gaztelur    ","rue":"Chemin de Gastelhur","postalcode":"64200","ville":"Arcangues"}
{"name":"\n      Hostellerie Jérôme    ","rue":"20 r. Comte de Cessole","postalcode":"06320","ville":"La Turbie"}
{"name":"\n      La Ferme de l'Hospital    ","rue":"rte du golf","postalcode":"74160","ville":"Bossey"}
{"name":"\n      Les Terrasses de Lyon    ","rue":"25, montée Saint BArthelémy","postalcode":"69005","ville":"Lyon 05"}
{"name":"\n      Pierre Gagnaire pour les Airelles    ","rue":"au Jardin Alpin","postalcode":"73120","ville":"Courchevel 1850"}
{"name":"\n      Le Cerisier    ","rue":"3 rue de la Gare","postalcode":"62840","ville":"LAVENTIE"}
{"name":"\n      Château de la Treyne    ","rue":"","postalcode":"46200","ville":"Lacave"}
{"name":"\n      L'Arbre    ","rue":"1, pavé jean-marie leblanc","postalcode":"59152","ville":"Gruson"}
{"name":"\n      Bacon    ","rue":"664 bd Bacon","postalcode":"06160","ville":"Juan les Pins"}
{"name":"\n      Le Relais des Moines    ","rue":"route de Ste-Roseline","postalcode":"83460","ville":"Les Arcs"}
{"name":"\n      L'Amphitryon    ","rue":"chemin de Gramont","postalcode":"31770","ville":"Colomiers"}
{"name":"\n      Raphaël Vionnet    ","rue":"43 Avenue du Général Leclerc","postalcode":"74200","ville":"Thonon-les-Bains"}
{"name":"\n      Helen    ","rue":"3 r.Berryer","postalcode":"75008","ville":"Paris"}
{"name":"\n      La Table des Merville    ","rue":"3 place Richard","postalcode":"31320","ville":"Castanet-Tolosan"}
{"name":"\n      Laurent    ","rue":"41 av. Gabriel","postalcode":"75008","ville":"Paris"}
{"name":"\n      Le Bistrot de Lagarde    ","rue":"rte d'Apt","postalcode":"84400","ville":"Lagarde-d'Apt"}
{"name":"\n      Domaine des Hauts de Loire    ","rue":"79 rue Gilbert Navard","postalcode":"41150","ville":"Onzain"}
{"name":"\n      L'Oasis    ","rue":"rue Jean-Honoré Carle","postalcode":"06210","ville":"La Napoule"}
{"name":"\n      Le Meurice Alain Ducasse    ","rue":"228 Rue de Rivoli","postalcode":"75001","ville":"Paris"}
{"name":"\n      Le Baudelaire    ","rue":"6-8 rue Duphot","postalcode":"75001","ville":"Paris 01"}
{"name":"\n      Hostellerie La Briqueterie    ","rue":"4 route de Sézanne","postalcode":"51530","ville":"Vinay"}
{"name":"\n      Les Terrasses d'Uriage    ","rue":"pl. Déesse-Hygie","postalcode":"38410","ville":"Uriage-les-Bains"}
{"name":"\n      La Chaumière    ","rue":"346 av. du Mar. -Juin","postalcode":"39100","ville":"Dole"}
{"name":"\n      La Table des Cordeliers    ","rue":"1 r. des Cordeliers","postalcode":"32100","ville":"Condom"}
{"name":"\n      Auberge du Vieux Puits    ","rue":"5 Avenue Saint-Victor","postalcode":"11360","ville":"Fontjoncouse"}
{"name":"\n      Le Beaulieu    ","rue":"34 Bis Place République","postalcode":"72000","ville":"Le Mans"}
{"name":"\n      Les Fables de La Fontaine    ","rue":"131 rue St-Dominique","postalcode":"75007","ville":"Paris"}
{"name":"\n      Le Petit Nice    ","rue":"Anse de Maldormé - Corniche J. F. Kennedy","postalcode":"13007","ville":"Marseille 07"}
{"name":"\n      Les Berceaux    ","rue":"13 rue des Berceaux","postalcode":"51200","ville":"Épernay"}
{"name":"\n      Dan B. - La Table de Ventabren    ","rue":"r. F. -Mistral","postalcode":"13122","ville":"Ventabren"}
{"name":"\n      Le Roc Alto    ","rue":"Quartier La Ville","postalcode":"05350","ville":"SAINT-VERAN"}
{"name":"\n      J.-M. Pérochon    ","rue":"63 avenue de la Grand'Roche","postalcode":"85470","ville":"Brétignolles-sur-Mer"}
{"name":"\n      Lasserre    ","rue":"17 Avenue F. -D. -Roosevelt","postalcode":"75008","ville":"Paris 08"}
{"name":"\n      Ed.Em    ","rue":"4 imp. Chenevottes","postalcode":"21190","ville":"Chassagne-Montrachet"}
{"name":"\n      Le Raisin    ","rue":"2 pl. M. -Poisat","postalcode":"01190","ville":"Pont-de-Vaux"}
{"name":"\n      Auberge La Pomme d'Api    ","rue":"49 r. Verderel","postalcode":"29250","ville":"Saint-Pol-de-Léon"}
{"name":"\n      Stéphane Tournié - Les Jardins de l'Opéra    ","rue":"1 place du Capitole","postalcode":"31000","ville":"Toulouse"}
